OBJECT_NAME,OBJECT_ID,EPOCH,MEAN_MOTION,ECCENTRICITY,INCLINATION,RA_OF_ASC_NODE,ARG_OF_PERICENTER,MEAN_ANOMALY,EPHEMERIS_TYPE,CLASSIFICATION_TYPE,NORAD_CAT_ID,ELEMENT_SET_NO,REV_AT_EPOCH,BSTAR,MEAN_MOTION_DOT,MEAN_MOTION_DDOT
LARES-2,2022-080A,2026-05-07T03:52:33.796992,6.38965197,.0005357,70.1704,319.3995,343.8104,16.2342,0,U,53105,999,8904,0,-.8E-7,0
GREENCUBE (IO-117),2022-080E,2026-05-11T22:06:15.720192,6.42583324,.00088641,70.1440,310.8630,297.9634,62.0128,0,U,53109,999,8973,0,-.3E-7,0
STARLINK-4410,2022-084R,2026-05-12T08:00:01.000224,15.16047272,.00015726,97.5974,192.9339,71.9938,135.5721,0,U,53204,999,574,-.19961454E-2,-.38226E-3,0
COSMOS 2558,2022-089A,2026-05-12T04:06:33.147072,15.68637845,.0002707,97.2245,234.9647,175.8225,184.3060,0,U,53323,999,21217,.47129E-3,.53613E-3,0
TECMS,2022-090A,2026-05-12T07:31:03.857376,15.21431250,.00018054,97.3153,201.4337,346.6582,13.4606,0,U,53346,999,20935,.10284064E-3,.2241E-4,0
DONGPO 02,2022-098J,2026-05-12T07:42:08.130816,15.68356203,.00025952,97.5466,260.6090,124.7421,235.4085,0,U,53452,999,20916,.46760268E-3,.52575E-3,0
DONGPO 01,2022-098K,2026-05-12T06:28:07.464576,15.66777630,.00008374,97.5532,261.1538,150.5477,209.5830,0,U,53453,999,20912,.47475496E-3,.50056E-3,0
STARLINK-4400,2022-099D,2026-05-12T06:58:53.080896,15.05660473,.00007405,97.5036,252.6656,67.4032,292.7274,0,U,53468,999,20554,-.65768982E-4,-.1008E-4,0
STARLINK-4621,2022-105AE,2026-05-12T05:27:11.056320,15.05655776,.00020706,97.5056,12.6098,69.6706,290.4743,0,U,53676,999,20279,-.1072822E-3,-.1607E-4,0
SHERPA-LTC2,2022-107BG,2026-05-11T22:25:21.434304,14.69173968,.0397786,53.2349,13.7515,124.7411,239.1699,0,U,53754,999,19721,.22117E-3,.4227E-4,0
CENTISPACE-1 S3,2022-108A,2026-05-12T05:29:29.544288,14.61218824,.00082605,53.5321,203.9454,244.8028,115.2091,0,U,53757,999,19627,.68133923E-4,.149E-5,0
CENTISPACE-1 S4,2022-108B,2026-05-12T05:30:50.301504,14.61891610,.000803,53.5295,201.6286,230.3321,129.6947,0,U,53758,999,19630,.88036682E-4,.254E-5,0
BLUEWALKER-3,2022-111AL,2026-05-11T22:04:36.479424,15.37831088,.0007368,53.2286,204.1731,67.5436,292.6349,0,U,53807,999,20462,.87472E-4,.2908E-4,0
YUNHAI-1 03,2022-115A,2026-05-12T06:58:36.479136,14.32692859,.00054267,98.5537,130.8950,140.8841,219.2736,0,U,53877,999,19037,.11551471E-3,.271E-5,0
CENTISPACE-1 S5,2022-126A,2026-05-12T03:28:41.350656,14.62947129,.00122747,55.0002,357.1823,0.5889,359.5117,0,U,54020,999,19176,.13001664E-3,.482E-5,0
CENTISPACE-1 S6,2022-126B,2026-05-12T04:31:51.584736,14.62237489,.00141248,55.0005,358.7067,359.5857,0.5122,0,U,54021,999,19173,.11341019E-3,.388E-5,0
OTB-3-GAZELLE,2022-127A,2026-05-12T04:51:40.323456,14.42661099,.00120219,98.3941,124.4572,300.4126,59.5876,0,U,54023,999,18917,.41364974E-4,.94E-6,0
ASO-S,2022-129A,2026-05-12T06:48:15.058368,14.52043644,.00138301,98.2756,137.8779,197.8893,162.1818,0,U,54029,999,19021,.38850487E-4,.113E-5,0
HJ-2E,2022-132A,2026-05-12T06:10:20.277696,15.21768372,.00222408,97.3809,137.2972,132.1076,228.2056,0,U,54035,999,19895,.20198105E-3,.4541E-4,0
COSMOS 2561,2022-137A,2026-05-12T03:59:28.529088,15.50778019,.0010979,96.9225,192.5305,150.0386,210.1497,0,U,54109,999,20076,.15592E-3,.8913E-4,0
GONETS-M 23,2022-139A,2026-05-12T06:44:08.078784,12.42889222,.00208036,82.5098,10.6101,302.1483,57.7578,0,U,54150,999,16118,.2157148E-3,.4E-6,0
GONETS-M 24,2022-139B,2026-05-12T06:05:26.104704,12.42889754,.00161872,82.5002,9.7113,313.7115,46.2623,0,U,54151,999,16118,.10904765E-3,.25E-6,0
GONETS-M 25,2022-139C,2026-05-12T07:41:41.606016,12.42889012,.00200751,82.5076,10.3366,311.3290,48.6062,0,U,54152,999,16119,.94734435E-4,.23E-6,0
SKIF-D,2022-139D,2026-05-11T11:35:16.077408,5.00438845,.0007415,89.9557,96.6788,215.3181,144.6708,0,U,54153,999,6227,0,.36E-6,0
MATS,2022-147A,2026-05-11T22:51:08.607744,15.05125941,.00116352,97.6826,133.7126,329.0019,31.0519,0,U,54227,999,19231,.19731135E-3,.275E-4,0
JILIN-1 GAOFEN 03D54,2022-155D,2026-05-12T07:43:18.487200,15.82743896,.00021032,97.6082,281.1666,165.3882,194.7448,0,U,54254,999,19460,.52642071E-3,.111488E-2,0
EOS-6 (OCEANSAT-3),2022-158A,2026-05-12T06:35:11.226336,14.47019141,.00022456,98.3524,230.9490,88.8228,271.3221,0,U,54361,999,18264,.53177161E-4,.15E-5,0
DONGPO 09,2022-167D,2026-05-12T07:36:18.588384,15.35532109,.00014423,97.6875,301.7529,225.0433,135.0693,0,U,54685,999,18994,.20754064E-3,.708E-4,0
DONGPO 08,2022-167E,2026-05-12T07:13:12.107712,15.32934587,.0006934,97.6836,299.0818,297.4952,62.5584,0,U,54686,999,18982,.19729691E-3,.6196E-4,0
2022-167F,2022-167F,2026-05-12T07:23:35.652192,15.80902972,.00032121,97.6178,316.1448,182.2074,177.9180,0,U,54687,999,19114,.47572508E-3,.92344E-3,0
