LARES-2                 
1 53105U 22080A   26127.16150228 -.00000008  00000+0  00000+0 0  9996
2 53105  70.1704 319.3995 0005357 343.8104  16.2342  6.38965197 89040
GREENCUBE (IO-117)      
1 53109U 22080E   26131.92101528 -.00000003  00000+0  00000+0 0  9993
2 53109  70.1440 310.8630 0008864 297.9634  62.0128  6.42583324 89736
STARLINK-4410           
1 53204U 22084R   26132.33334491 -.00038226  00000+0 -19961-2 0  9994
2 53204  97.5974 192.9339 0001572  71.9938 135.5721 15.16047272  5740
COSMOS 2558             
1 53323U 22089A   26132.17121698  .00053613  00000+0  47129-3 0  9999
2 53323  97.2245 234.9647 0002707 175.8225 184.3060 15.68637845212176
TECMS                   
1 53346U 22090A   26132.31323909  .00002241  00000+0  10284-3 0  9994
2 53346  97.3153 201.4337 0001805 346.6582  13.4606 15.21431250209352
DONGPO 02               
1 53452U 22098J   26132.32092744  .00052575  00000+0  46760-3 0  9994
2 53452  97.5466 260.6090 0002595 124.7421 235.4085 15.68356203209167
DONGPO 01               
1 53453U 22098K   26132.26953084  .00050056  00000+0  47475-3 0  9997
2 53453  97.5532 261.1538 0000837 150.5477 209.5830 15.66777630209125
STARLINK-4400           
1 53468U 22099D   26132.29089214 -.00001008  00000+0 -65769-4 0  9994
2 53468  97.5036 252.6656 0000740  67.4032 292.7274 15.05660473205549
STARLINK-4621           
1 53676U 22105AE  26132.22721130 -.00001607  00000+0 -10728-3 0  9995
2 53676  97.5056  12.6098 0002070  69.6706 290.4743 15.05655776202796
SHERPA-LTC2             
1 53754U 22107BG  26131.93427586  .00004227  00000+0  22117-3 0  9993
2 53754  53.2349  13.7515 0397786 124.7411 239.1699 14.69173968197217
CENTISPACE-1 S3         
1 53757U 22108A   26132.22881417  .00000149  00000+0  68134-4 0  9996
2 53757  53.5321 203.9454 0008260 244.8028 115.2091 14.61218824196270
CENTISPACE-1 S4         
1 53758U 22108B   26132.22974886  .00000254  00000+0  88037-4 0  9991
2 53758  53.5295 201.6286 0008030 230.3321 129.6947 14.61891610196303
BLUEWALKER-3            
1 53807U 22111AL  26131.91986666  .00002908  00000+0  87472-4 0  9994
2 53807  53.2286 204.1731 0007368  67.5436 292.6349 15.37831088204627
YUNHAI-1 03             
1 53877U 22115A   26132.29069999  .00000271  00000+0  11551-3 0  9993
2 53877  98.5537 130.8950 0005426 140.8841 219.2736 14.32692859190377
CENTISPACE-1 S5         
1 54020U 22126A   26132.14492304  .00000482  00000+0  13002-3 0  9997
2 54020  55.0002 357.1823 0012274   0.5889 359.5117 14.62947129191760
CENTISPACE-1 S6         
1 54021U 22126B   26132.18879149  .00000388  00000+0  11341-3 0  9997
2 54021  55.0005 358.7067 0014124 359.5857   0.5122 14.62237489191736
OTB-3-GAZELLE           
1 54023U 22127A   26132.20255004  .00000094  00000+0  41365-4 0  9995
2 54023  98.3941 124.4572 0012021 300.4126  59.5876 14.42661099189175
ASO-S                   
1 54029U 22129A   26132.28350762  .00000113  00000+0  38850-4 0  9995
2 54029  98.2756 137.8779 0013830 197.8893 162.1818 14.52043644190214
HJ-2E                   
1 54035U 22132A   26132.25717914  .00004541  00000+0  20198-3 0  9993
2 54035  97.3809 137.2972 0022240 132.1076 228.2056 15.21768372198955
COSMOS 2561             
1 54109U 22137A   26132.16630242  .00008913  00000+0  15592-3 0  9997
2 54109  96.9225 192.5305 0010979 150.0386 210.1497 15.50778019200760
GONETS-M 23             
1 54150U 22139A   26132.28064906  .00000040  00000+0  21571-3 0  9993
2 54150  82.5098  10.6101 0020803 302.1483  57.7578 12.42889222161188
GONETS-M 24             
1 54151U 22139B   26132.25377436  .00000025  00000+0  10905-3 0  9998
2 54151  82.5002   9.7113 0016187 313.7115  46.2623 12.42889754161180
GONETS-M 25             
1 54152U 22139C   26132.32062044  .00000023  00000+0  94734-4 0  9994
2 54152  82.5076  10.3366 0020075 311.3290  48.6062 12.42889012161190
SKIF-D                  
1 54153U 22139D   26131.48282497  .00000036  00000+0  00000+0 0  9999
2 54153  89.9557  96.6788 0007415 215.3181 144.6708  5.00438845 62279
MATS                    
1 54227U 22147A   26131.95218296  .00002750  00000+0  19731-3 0  9998
2 54227  97.6826 133.7126 0011635 329.0019  31.0519 15.05125941192311
JILIN-1 GAOFEN 03D54    
1 54254U 22155D   26132.32174175  .00111488  00000+0  52642-3 0  9993
2 54254  97.6082 281.1666 0002103 165.3882 194.7448 15.82743896194603
EOS-6 (OCEANSAT-3)      
1 54361U 22158A   26132.27443549  .00000150  00000+0  53177-4 0  9991
2 54361  98.3524 230.9490 0002245  88.8228 271.3221 14.47019141182649
DONGPO 09               
1 54685U 22167D   26132.31688181  .00007080  00000+0  20754-3 0  9991
2 54685  97.6875 301.7529 0001442 225.0433 135.0693 15.35532109189941
DONGPO 08               
1 54686U 22167E   26132.30083458  .00006196  00000+0  19730-3 0  9996
2 54686  97.6836 299.0818 0006934 297.4952  62.5584 15.32934587189822
2022-167F               
1 54687U 22167F   26132.30805153  .00092344  00000+0  47573-3 0  9997
2 54687  97.6178 316.1448 0003212 182.2074 177.9180 15.80902972191141
